GLOBALSTAR M023         
1 25621U 99004A   25256.17776772 -.00000020  00000+0  46743-3 0  9991
2 25621  52.0102 145.5082 0010008 324.9070 199.2313 12.62505944226845
GLOBALSTAR M040         
1 25622U 99004B   25256.18936545 -.00000071  00000+0  18097-3 0  9996
2 25622  51.9911 149.7577 0000239 166.6528   6.8824 12.62016804226360
GLOBALSTAR M036         
1 25623U 99004C   25256.09442610 -.00000057  00000+0  37646-3 0  9997
2 25623  52.0002   8.6141 0010659 216.0865 315.0209 11.86608324189410
GLOBALSTAR M038         
1 25624U 99004D   25256.07383329 -.00000069  00000+0  21763-3 0  9993
2 25624  51.9966 178.4672 0001227 241.2721 131.9442 12.32531958213215
GLOBALSTAR M022         
1 25649U 99012A   25256.20859336 -.00000096  00000+0 -11122-3 0  9999
2 25649  52.0050  51.6159 0002544   6.8073 162.7644 12.02502607186961
GLOBALSTAR M041         
1 25650U 99012B   25256.08815920 -.00000098  00000+0 -15890-3 0  9996
2 25650  52.0024 296.0811 0001617 128.6312 231.4670 11.96682865188808
GLOBALSTAR M046         
1 25651U 99012C   25256.05782593 -.00000021  00000+0  74430-3 0  9993
2 25651  52.0091 358.9553 0002571  80.0714  90.5124 12.09413251194295
GLOBALSTAR M037         
1 25652U 99012D   25256.04902425 -.00000074  00000+0  16389-3 0  9998
2 25652  51.9994 276.4887 0002098  28.2544 349.4923 12.62450996222379
